{
    "links": {
        "self": "http://www.neowsapp.com/rest/v1/neo/3841989?api_key=iIulBulltgU6a56xZRHN4H3l9WmuAYTsLGpBGhQ2"
    },
    "id": "3841989",
    "neo_reference_id": "3841989",
    "name": "(2019 KH1)",
    "designation": "2019 KH1",
    "nasa_jpl_url": "http://ssd.jpl.nasa.gov/sbdb.cgi?sstr=3841989",
    "absolute_magnitude_h": 25.5,
    "estimated_diameter": {
        "kilometers": {
            "estimated_diameter_min": 0.0211132445,
            "estimated_diameter_max": 0.0472106499
        },
        "meters": {
            "estimated_diameter_min": 21.113244479,
            "estimated_diameter_max": 47.2106498806
        },
        "miles": {
            "estimated_diameter_min": 0.0131191578,
            "estimated_diameter_max": 0.0293353287
        },
        "feet": {
            "estimated_diameter_min": 69.2691770164,
            "estimated_diameter_max": 154.8905885541
        }
    },
    "is_potentially_hazardous_asteroid": false,
    "close_approach_data": [
        {
            "close_approach_date": "1943-05-25",
            "close_approach_date_full": "1943-May-25 20:50",
            "epoch_date_close_approach": -839560200000,
            "relative_velocity": {
                "kilometers_per_second": "22.4121507052",
                "kilometers_per_hour": "80683.7425388863",
                "miles_per_hour": "50133.7399125652"
            },
            "miss_distance": {
                "astronomical": "0.1413923033",
                "lunar": "55.0016059837",
                "kilometers": "21151987.408073971",
                "miles": "13143235.5154479598"
            },
            "orbiting_body": "Earth"
        },
        {
            "close_approach_date": "2019-06-02",
            "close_approach_date_full": "2019-Jun-02 08:10",
            "epoch_date_close_approach": 1559463000000,
            "relative_velocity": {
                "kilometers_per_second": "18.5158279002",
                "kilometers_per_hour": "66656.9804407672",
                "miles_per_hour": "41418.0554299867"
            },
            "miss_distance": {
                "astronomical": "0.0272170882",
                "lunar": "10.5874473098",
                "kilometers": "4071618.422322134",
                "miles": "2529986.3706040892"
            },
            "orbiting_body": "Earth"
        },
        {
            "close_approach_date": "2065-05-24",
            "close_approach_date_full": "2065-May-24 09:56",
            "epoch_date_close_approach": 3010384560000,
            "relative_velocity": {
                "kilometers_per_second": "23.3132842661",
                "kilometers_per_hour": "83927.823357847",
                "miles_per_hour": "52149.4855747689"
            },
            "miss_distance": {
                "astronomical": "0.1769976371",
                "lunar": "68.8520808319",
                "kilometers": "26478469.505192977",
                "miles": "16452958.0167260026"
            },
            "orbiting_body": "Earth"
        },
        {
            "close_approach_date": "2141-06-14",
            "close_approach_date_full": "2141-Jun-14 03:13",
            "epoch_date_close_approach": 5410465980000,
            "relative_velocity": {
                "kilometers_per_second": "13.3554357387",
                "kilometers_per_hour": "48079.5686593873",
                "miles_per_hour": "29874.7742039399"
            },
            "miss_distance": {
                "astronomical": "0.2523021074",
                "lunar": "98.1455197786",
                "kilometers": "37743857.863551238",
                "miles": "23452945.7488655644"
            },
            "orbiting_body": "Earth"
        },
        {
            "close_approach_date": "2144-12-04",
            "close_approach_date_full": "2144-Dec-04 11:16",
            "epoch_date_close_approach": 5520136560000,
            "relative_velocity": {
                "kilometers_per_second": "19.6489156791",
                "kilometers_per_hour": "70736.0964449202",
                "miles_per_hour": "43952.6594826783"
            },
            "miss_distance": {
                "astronomical": "0.0313388661",
                "lunar": "12.1908189129",
                "kilometers": "4688227.616775207",
                "miles": "2913129.5574515766"
            },
            "orbiting_body": "Earth"
        }
    ],
    "orbital_data": {
        "orbit_id": "3",
        "orbit_determination_date": "2019-05-31 06:26:42",
        "first_observation_date": "2019-05-26",
        "last_observation_date": "2019-05-31",
        "data_arc_in_days": 5,
        "observations_used": 34,
        "orbit_uncertainty": "8",
        "minimum_orbit_intersection": ".0177102",
        "jupiter_tisserand_invariant": "4.646",
        "epoch_osculation": "2458630.5",
        "eccentricity": ".5116421320155928",
        "semi_major_axis": "1.359577340204564",
        "inclination": "21.29362520526456",
        "ascending_node_longitude": "67.86642744009025",
        "orbital_period": "579.0343170411319",
        "perihelion_distance": ".6639602912222119",
        "perihelion_argument": "275.5228319226093",
        "aphelion_distance": "2.055194389186916",
        "perihelion_time": "2458694.440135243455",
        "mean_anomaly": "320.2468316467525",
        "mean_motion": ".6217248087118596",
        "equinox": "J2000",
        "orbit_class": {
            "orbit_class_type": "APO",
            "orbit_class_description": "Near-Earth asteroid orbits which cross the Earth’s orbit similar to that of 1862 Apollo",
            "orbit_class_range": "a (semi-major axis) > 1.0 AU; q (perihelion) < 1.017 AU"
        }
    },
    "is_sentry_object": false
}